IRIDIUM 126             
1 42809U 17039G   24092.62457446  .00000376  00000+0  12706-3 0  9992
2 42809  86.3987 330.7279 0002139  92.7006 267.4435 14.34218029354340
IRIDIUM 124             
1 42810U 17039H   24092.52672167  .00000255  00000+0  69849-4 0  9999
2 42810  86.4439 267.4723 0002173  84.5863 275.5585 14.43285437358766
IRIDIUM 128             
1 42811U 17039J   24092.47577332  .00000506  00000+0  17376-3 0  9998
2 42811  86.4028   2.2906 0002319  84.5274 275.6187 14.34212559354352
IRIDIUM 121             
1 42812U 17039K   24092.57383126  .00000040  00000+0  73655-5 0  9993
2 42812  86.3987 330.7716 0002086  87.8294 272.3141 14.34217381354210
IRIDIUM 133             
1 42955U 17061A   24092.50748580  .00000082  00000+0  22142-4 0  9998
2 42955  86.4026   2.3751 0002167  87.8752 272.2692 14.34216622339156
IRIDIUM 100             
1 42956U 17061B   24092.50114232  .00000393  00000+0  13334-3 0  9997
2 42956  86.4029   2.3154 0002217  87.7993 272.3456 14.34218955339171
IRIDIUM 122             
1 42957U 17061C   24093.02758149  .00000373  00000+0  12625-3 0  9997
2 42957  86.4027   2.0937 0002331  88.0444 272.1019 14.34218468339237
IRIDIUM 129             
1 42958U 17061D   24092.49480685  .00000447  00000+0  15254-3 0  9998
2 42958  86.4028   2.3746 0002283  89.2888 270.8570 14.34214241339176
